FENGYUN 1C DEB          
1 36141U 99025DRN 17345.93674788  .00001012  00000-0  64522-3 0  9998
2 36141  98.4822  46.0462 0146521 230.0036 128.8192 14.00597425229613
